[{"OBJECT_NAME":"STARLINK-2104","OBJECT_ID":"2021-005AM","EPOCH":"2026-01-31T19:47:47.128992","MEAN_MOTION":15.06387223,"ECCENTRICITY":0.00012827,"INCLINATION":53.0568,"RA_OF_ASC_NODE":197.3529,"ARG_OF_PERICENTER":87.9495,"MEAN_ANOMALY":272.1641,"EPHEMERIS_TYPE":0,"CLASSIFICATION_TYPE":"U","NORAD_CAT_ID":47384,"ELEMENT_SET_NO":999,"REV_AT_EPOCH":27790,"BSTAR":-7.7821156e-5,"MEAN_MOTION_DOT":-1.44e-5,"MEAN_MOTION_DDOT":0},{"OBJECT_NAME":"STARLINK-2105","OBJECT_ID":"2021-005AN","EPOCH":"2026-01-31T18:06:54.490176","MEAN_MOTION":15.06388373,"ECCENTRICITY":0.00017994,"INCLINATION":53.0558,"RA_OF_ASC_NODE":197.4271,"ARG_OF_PERICENTER":93.2352,"MEAN_ANOMALY":266.8843,"EPHEMERIS_TYPE":0,"CLASSIFICATION_TYPE":"U","NORAD_CAT_ID":47385,"ELEMENT_SET_NO":999,"REV_AT_EPOCH":27789,"BSTAR":-5.1022059e-5,"MEAN_MOTION_DOT":-1.041e-5,"MEAN_MOTION_DDOT":0},{"OBJECT_NAME":"STARLINK-2106","OBJECT_ID":"2021-005AP","EPOCH":"2026-01-31T20:24:53.457408","MEAN_MOTION":15.06399903,"ECCENTRICITY":0.00013809,"INCLINATION":53.0558,"RA_OF_ASC_NODE":196.9955,"ARG_OF_PERICENTER":81.192,"MEAN_ANOMALY":278.9226,"EPHEMERIS_TYPE":0,"CLASSIFICATION_TYPE":"U","NORAD_CAT_ID":47386,"ELEMENT_SET_NO":999,"REV_AT_EPOCH":27791,"BSTAR":0.00010295746,"MEAN_MOTION_DOT":1.252e-5,"MEAN_MOTION_DDOT":0},{"OBJECT_NAME":"STARLINK-2109","OBJECT_ID":"2021-005AR","EPOCH":"2026-01-31T20:26:14.043552","MEAN_MOTION":15.06387979,"ECCENTRICITY":0.00019392,"INCLINATION":53.0546,"RA_OF_ASC_NODE":226.9903,"ARG_OF_PERICENTER":96.5227,"MEAN_ANOMALY":263.5983,"EPHEMERIS_TYPE":0,"CLASSIFICATION_TYPE":"U","NORAD_CAT_ID":47388,"ELEMENT_SET_NO":999,"REV_AT_EPOCH":27748,"BSTAR":0.00016581012,"MEAN_MOTION_DOT":2.188e-5,"MEAN_MOTION_DDOT":0},{"OBJECT_NAME":"STARLINK-2110","OBJECT_ID":"2021-005AS","EPOCH":"2026-02-01T00:00:02.999808","MEAN_MOTION":15.1234977,"ECCENTRICITY":0.00018906,"INCLINATION":53.077,"RA_OF_ASC_NODE":206.2358,"ARG_OF_PERICENTER":107.4314,"MEAN_ANOMALY":137.1575,"EPHEMERIS_TYPE":0,"CLASSIFICATION_TYPE":"U","NORAD_CAT_ID":47389,"ELEMENT_SET_NO":999,"REV_AT_EPOCH":574,"BSTAR":0.0032168533,"MEAN_MOTION_DOT":0.00056566,"MEAN_MOTION_DDOT":0},{"OBJECT_NAME":"STARLINK-2111","OBJECT_ID":"2021-005AT","EPOCH":"2026-01-31T19:49:04.138176","MEAN_MOTION":15.06399696,"ECCENTRICITY":0.00014459,"INCLINATION":53.055,"RA_OF_ASC_NODE":227.1054,"ARG_OF_PERICENTER":95.7332,"MEAN_ANOMALY":264.3822,"EPHEMERIS_TYPE":0,"CLASSIFICATION_TYPE":"U","NORAD_CAT_ID":47390,"ELEMENT_SET_NO":999,"REV_AT_EPOCH":27748,"BSTAR":4.7666165e-5,"MEAN_MOTION_DOT":4.29e-6,"MEAN_MOTION_DDOT":0},{"OBJECT_NAME":"STARLINK-2112","OBJECT_ID":"2021-005AU","EPOCH":"2026-01-31T20:02:18.517056","MEAN_MOTION":15.06391248,"ECCENTRICITY":0.00012654,"INCLINATION":53.0563,"RA_OF_ASC_NODE":197.0646,"ARG_OF_PERICENTER":86.9603,"MEAN_ANOMALY":273.1531,"EPHEMERIS_TYPE":0,"CLASSIFICATION_TYPE":"U","NORAD_CAT_ID":47391,"ELEMENT_SET_NO":999,"REV_AT_EPOCH":27790,"BSTAR":-9.0471633e-5,"MEAN_MOTION_DOT":-1.628e-5,"MEAN_MOTION_DDOT":0},{"OBJECT_NAME":"STARLINK-2113","OBJECT_ID":"2021-005AV","EPOCH":"2026-02-01T00:00:02.999808","MEAN_MOTION":15.44409379,"ECCENTRICITY":5.53e-5,"INCLINATION":53.0547,"RA_OF_ASC_NODE":193.5424,"ARG_OF_PERICENTER":56.8777,"MEAN_ANOMALY":101.9522,"EPHEMERIS_TYPE":0,"CLASSIFICATION_TYPE":"U","NORAD_CAT_ID":47392,"ELEMENT_SET_NO":999,"REV_AT_EPOCH":574,"BSTAR":0.028952628,"MEAN_MOTION_DOT":0.01506685,"MEAN_MOTION_DDOT":0},{"OBJECT_NAME":"STARLINK-2114","OBJECT_ID":"2021-005AW","EPOCH":"2026-02-01T00:00:02.999808","MEAN_MOTION":15.48016405,"ECCENTRICITY":0.00032941,"INCLINATION":53.0495,"RA_OF_ASC_NODE":161.153,"ARG_OF_PERICENTER":323.9339,"MEAN_ANOMALY":40.8195,"EPHEMERIS_TYPE":0,"CLASSIFICATION_TYPE":"U","NORAD_CAT_ID":47393,"ELEMENT_SET_NO":999,"REV_AT_EPOCH":580,"BSTAR":0.0018031269,"MEAN_MOTION_DOT":0.00096617,"MEAN_MOTION_DDOT":0},{"OBJECT_NAME":"STARLINK-2119","OBJECT_ID":"2021-005BA","EPOCH":"2026-01-31T22:07:04.230336","MEAN_MOTION":15.06396027,"ECCENTRICITY":0.00013173,"INCLINATION":53.0541,"RA_OF_ASC_NODE":226.676,"ARG_OF_PERICENTER":94.0012,"MEAN_ANOMALY":266.1128,"EPHEMERIS_TYPE":0,"CLASSIFICATION_TYPE":"U","NORAD_CAT_ID":47397,"ELEMENT_SET_NO":999,"REV_AT_EPOCH":27750,"BSTAR":8.7590312e-5,"MEAN_MOTION_DOT":1.023e-5,"MEAN_MOTION_DDOT":0},{"OBJECT_NAME":"STARLINK-2121","OBJECT_ID":"2021-005BC","EPOCH":"2026-02-01T00:00:02.999808","MEAN_MOTION":15.14763927,"ECCENTRICITY":0.00020693,"INCLINATION":53.0851,"RA_OF_ASC_NODE":206.3922,"ARG_OF_PERICENTER":70.3646,"MEAN_ANOMALY":41.255,"EPHEMERIS_TYPE":0,"CLASSIFICATION_TYPE":"U","NORAD_CAT_ID":47399,"ELEMENT_SET_NO":999,"REV_AT_EPOCH":560,"BSTAR":0.0031810286,"MEAN_MOTION_DOT":0.00059894,"MEAN_MOTION_DDOT":0},{"OBJECT_NAME":"STARLINK-2122","OBJECT_ID":"2021-005BD","EPOCH":"2026-01-31T17:08:22.655904","MEAN_MOTION":15.29356337,"ECCENTRICITY":6.938e-5,"INCLINATION":53.1534,"RA_OF_ASC_NODE":185.214,"ARG_OF_PERICENTER":62.7028,"MEAN_ANOMALY":297.4043,"EPHEMERIS_TYPE":0,"CLASSIFICATION_TYPE":"U","NORAD_CAT_ID":47400,"ELEMENT_SET_NO":999,"REV_AT_EPOCH":27806,"BSTAR":8.9379519e-5,"MEAN_MOTION_DOT":2.224e-5,"MEAN_MOTION_DDOT":0},{"OBJECT_NAME":"STARLINK-2123","OBJECT_ID":"2021-005BE","EPOCH":"2026-01-31T20:14:16.836288","MEAN_MOTION":15.06404529,"ECCENTRICITY":0.00011766,"INCLINATION":53.0562,"RA_OF_ASC_NODE":197.0285,"ARG_OF_PERICENTER":81.4661,"MEAN_ANOMALY":278.6461,"EPHEMERIS_TYPE":0,"CLASSIFICATION_TYPE":"U","NORAD_CAT_ID":47401,"ELEMENT_SET_NO":999,"REV_AT_EPOCH":27791,"BSTAR":0.00017904148,"MEAN_MOTION_DOT":2.387e-5,"MEAN_MOTION_DDOT":0},{"OBJECT_NAME":"STARLINK-2128","OBJECT_ID":"2021-005BH","EPOCH":"2026-02-01T00:00:02.999808","MEAN_MOTION":15.44917793,"ECCENTRICITY":0.00012576,"INCLINATION":53.0535,"RA_OF_ASC_NODE":193.5314,"ARG_OF_PERICENTER":85.1448,"MEAN_ANOMALY":279.611,"EPHEMERIS_TYPE":0,"CLASSIFICATION_TYPE":"U","NORAD_CAT_ID":47404,"ELEMENT_SET_NO":999,"REV_AT_EPOCH":570,"BSTAR":0.029478705,"MEAN_MOTION_DOT":0.01566964,"MEAN_MOTION_DDOT":0},{"OBJECT_NAME":"STARLINK-2130","OBJECT_ID":"2021-005BJ","EPOCH":"2026-01-31T21:56:27.712032","MEAN_MOTION":15.06390744,"ECCENTRICITY":0.0001443,"INCLINATION":53.055,"RA_OF_ASC_NODE":226.7092,"ARG_OF_PERICENTER":92.3784,"MEAN_ANOMALY":267.737,"EPHEMERIS_TYPE":0,"CLASSIFICATION_TYPE":"U","NORAD_CAT_ID":47405,"ELEMENT_SET_NO":999,"REV_AT_EPOCH":27749,"BSTAR":5.4502635e-5,"MEAN_MOTION_DOT":5.3e-6,"MEAN_MOTION_DDOT":0},{"OBJECT_NAME":"STARLINK-2133","OBJECT_ID":"2021-005BK","EPOCH":"2026-01-30T18:47:41.274240","MEAN_MOTION":16.36031453,"ECCENTRICITY":0.00073835,"INCLINATION":53.0235,"RA_OF_ASC_NODE":151.3733,"ARG_OF_PERICENTER":328.0956,"MEAN_ANOMALY":31.9641,"EPHEMERIS_TYPE":0,"CLASSIFICATION_TYPE":"U","NORAD_CAT_ID":47406,"ELEMENT_SET_NO":999,"REV_AT_EPOCH":27845,"BSTAR":0.00077613022,"MEAN_MOTION_DOT":0.06783928,"MEAN_MOTION_DDOT":1.233699e-5}]
