STARLINK-2104           
1 47384U 21005AM  26031.82485103 -.00001440  00000+0 -77821-4 0  9996
2 47384  53.0568 197.3529 0001282  87.9495 272.1641 15.06387223277901
STARLINK-2105           
1 47385U 21005AN  26031.75479734 -.00001041  00000+0 -51022-4 0  9994
2 47385  53.0558 197.4271 0001799  93.2352 266.8843 15.06388373277890
STARLINK-2106           
1 47386U 21005AP  26031.85061872  .00001252  00000+0  10296-3 0  9995
2 47386  53.0558 196.9955 0001380  81.1920 278.9226 15.06399903277910
STARLINK-2109           
1 47388U 21005AR  26031.85155143  .00002188  00000+0  16581-3 0  9994
2 47388  53.0546 226.9903 0001939  96.5227 263.5983 15.06387979277488
STARLINK-2110           
1 47389U 21005AS  26032.00003472  .00056566  00000+0  32169-2 0  9998
2 47389  53.0770 206.2358 0001890 107.4314 137.1575 15.12349770  5743
STARLINK-2111           
1 47390U 21005AT  26031.82574234  .00000429  00000+0  47666-4 0  9995
2 47390  53.0550 227.1054 0001445  95.7332 264.3822 15.06399696277486
STARLINK-2112           
1 47391U 21005AU  26031.83493654 -.00001628  00000+0 -90472-4 0  9990
2 47391  53.0563 197.0646 0001265  86.9603 273.1531 15.06391248277903
STARLINK-2113           
1 47392U 21005AV  26032.00003472  .01506685  00000+0  28953-1 0  9990
2 47392  53.0547 193.5424 0000553  56.8777 101.9522 15.44409379  5744
STARLINK-2114           
1 47393U 21005AW  26032.00003472  .00096617  00000+0  18031-2 0  9996
2 47393  53.0495 161.1530 0003294 323.9339  40.8195 15.48016405  5805
STARLINK-2119           
1 47397U 21005BA  26031.92157674  .00001023  00000+0  87590-4 0  9999
2 47397  53.0541 226.6760 0001317  94.0012 266.1128 15.06396027277503
STARLINK-2121           
1 47399U 21005BC  26032.00003472  .00059894  00000+0  31810-2 0  9998
2 47399  53.0851 206.3922 0002069  70.3646  41.2550 15.14763927  5606
STARLINK-2122           
1 47400U 21005BD  26031.71415111  .00002224  00000+0  89380-4 0  9997
2 47400  53.1534 185.2140 0000693  62.7028 297.4043 15.29356337278068
STARLINK-2123           
1 47401U 21005BE  26031.84325042  .00002387  00000+0  17904-3 0  9997
2 47401  53.0562 197.0285 0001176  81.4661 278.6461 15.06404529277918
STARLINK-2128           
1 47404U 21005BH  26032.00003472  .01566964  00000+0  29479-1 0  9994
2 47404  53.0535 193.5314 0001257  85.1448 279.6110 15.44917793  5701
STARLINK-2130           
1 47405U 21005BJ  26031.91420963  .00000530  00000+0  54503-4 0  9992
2 47405  53.0550 226.7092 0001443  92.3784 267.7370 15.06390744277493
STARLINK-2133           
1 47406U 21005BK  26030.78311660  .06783928  12337-4  77613-3 0  9992
2 47406  53.0235 151.3733 0007383 328.0956  31.9641 16.36031453278450
